[{"OBJECT_NAME":"STARLINK-3783","OBJECT_ID":"2022-041X","EPOCH":"2026-03-09T18:47:13.358400","MEAN_MOTION":15.08818025,"ECCENTRICITY":0.00010652,"INCLINATION":53.2158,"RA_OF_ASC_NODE":98.7034,"ARG_OF_PERICENTER":86.9521,"MEAN_ANOMALY":273.1593,"EPHEMERIS_TYPE":0,"CLASSIFICATION_TYPE":"U","NORAD_CAT_ID":52282,"ELEMENT_SET_NO":999,"REV_AT_EPOCH":21451,"BSTAR":-7.9966622e-5,"MEAN_MOTION_DOT":-1.559e-5,"MEAN_MOTION_DDOT":0},{"OBJECT_NAME":"OBJECT D","OBJECT_ID":"2025-013D","EPOCH":"2026-03-09T22:45:56.369376","MEAN_MOTION":15.10588544,"ECCENTRICITY":0.0008827,"INCLINATION":97.6457,"RA_OF_ASC_NODE":238.3603,"ARG_OF_PERICENTER":18.3993,"MEAN_ANOMALY":341.7554,"EPHEMERIS_TYPE":0,"CLASSIFICATION_TYPE":"U","NORAD_CAT_ID":62732,"ELEMENT_SET_NO":999,"REV_AT_EPOCH":6229,"BSTAR":0.00036300228,"MEAN_MOTION_DOT":5.935e-5,"MEAN_MOTION_DDOT":0}]
